[{"OBJECT_NAME":"STARLINK-5771","OBJECT_ID":"2023-042AP","EPOCH":"2026-03-09T07:43:44.707008","MEAN_MOTION":15.03041905,"ECCENTRICITY":0.00018472,"INCLINATION":43.0045,"RA_OF_ASC_NODE":45.2113,"ARG_OF_PERICENTER":257.6913,"MEAN_ANOMALY":102.3723,"EPHEMERIS_TYPE":0,"CLASSIFICATION_TYPE":"U","NORAD_CAT_ID":56023,"ELEMENT_SET_NO":999,"REV_AT_EPOCH":16300,"BSTAR":0.0045779413,"MEAN_MOTION_DOT":0.00063039,"MEAN_MOTION_DDOT":0},{"OBJECT_NAME":"COSMOS 2251 DEB","OBJECT_ID":"1993-036BC","EPOCH":"2026-03-09T15:03:07.178688","MEAN_MOTION":15.0931248,"ECCENTRICITY":0.0027782,"INCLINATION":73.8339,"RA_OF_ASC_NODE":121.9492,"ARG_OF_PERICENTER":197.5511,"MEAN_ANOMALY":285.2146,"EPHEMERIS_TYPE":0,"CLASSIFICATION_TYPE":"U","NORAD_CAT_ID":33811,"ELEMENT_SET_NO":999,"REV_AT_EPOCH":91327,"BSTAR":0.0014101,"MEAN_MOTION_DOT":0.00022722,"MEAN_MOTION_DDOT":0}]
